{
"type": "FeatureCollection",
"name": "04_indigenous_villages_mrd",
"crs": { "type": "name", "properties": { "name": "urn:ogc:def:crs:EPSG::32648" } },
"features": [
{ "type": "Feature", "properties": { "map_id": 1, "ethnic": "Jarai", "village": "Le", "commune": "Lum Choar", "district": "Ou Ya Dav", "province": "Ratanakiri", "requested_date_by_community": "05/06/2010", "identified_by_mrd": "Yes", "data_source": "MRD_communities", "x": 753135.51130258001, "y": 1516543.2614355099 }, "geometry": { "type": "MultiPoint", "coordinates": [ [ 753135.511302580009215, 1516543.261435509892181 ] ] } },
{ "type": "Feature", "properties": { "map_id": 2, "ethnic": "Kreung", "village": "Kralong", "commune": "L'ak", "district": "Ou Chum", "province": "Ratanakiri", "requested_date_by_community": "11/03/2011", "identified_by_mrd": "Yes", "data_source": "MRD_communities", "x": 724489.69720051996, "y": 1532509.0792987 }, "geometry": { "type": "MultiPoint", "coordinates": [ [ 724489.697200519964099, 1532509.079298699973151 ] ] } },
{ "type": "Feature", "properties": { "map_id": 3, "ethnic": "Jarai", "village": "Sala", "commune": "Kak", "district": "Bar Kaev", "province": "Ratanakiri", "requested_date_by_community": "03/04/2010", "identified_by_mrd": "Yes", "data_source": "MRD_communities", "x": 741067.60529738001, "y": 1515584.24298908 }, "geometry": { "type": "MultiPoint", "coordinates": [ [ 741067.605297380010597, 1515584.242989080026746 ] ] } },
{ "type": "Feature", "properties": { "map_id": 4, "ethnic": "Jarai", "village": "Ta Kok Chor Ray", "commune": "Bar Kham", "district": "Ou Ya Dav", "province": "Ratanakiri", "requested_date_by_community": "12/06/2011", "identified_by_mrd": "Yes", "data_source": "MRD_communities", "x": 747949.57790869998, "y": 1503741.34755293 }, "geometry": { "type": "MultiPoint", "coordinates": [ [ 747949.5779086999828, 1503741.347552930004895 ] ] } },
{ "type": "Feature", "properties": { "map_id": 5, "ethnic": "Kreung", "village": "Teum", "commune": "Teun", "district": "Koun Mom", "province": "Ratanakiri", "requested_date_by_community": "04/29/2013", "identified_by_mrd": "Yes", "data_source": "MRD_communities", "x": 700969.91473554994, "y": 1512923.1833045201 }, "geometry": { "type": "MultiPoint", "coordinates": [ [ 700969.914735549944453, 1512923.183304520091042 ] ] } },
{ "type": "Feature", "properties": { "map_id": 6, "ethnic": "Tumpoun", "village": "Ba Tang", "commune": "Ba Tang", "district": "Lumphat", "province": "Ratanakiri", "requested_date_by_community": "05/07/2010", "identified_by_mrd": "Yes", "data_source": "MRD_communities", "x": 710165.87519983004, "y": 1497453.3181914501 }, "geometry": { "type": "MultiPoint", "coordinates": [ [ 710165.87519983004313, 1497453.318191450089216 ] ] } },
{ "type": "Feature", "properties": { "map_id": 7, "ethnic": "Jarai", "village": "Chrung", "commune": "Kak", "district": "Bar Kaev", "province": "Ratanakiri", "requested_date_by_community": "12/09/2009", "identified_by_mrd": "Yes", "data_source": "MRD_communities", "x": 744213.58277809003, "y": 1514836.2553427999 }, "geometry": { "type": "MultiPoint", "coordinates": [ [ 744213.582778090029024, 1514836.255342799937353 ] ] } },
{ "type": "Feature", "properties": { "map_id": 8, "ethnic": "Jarai", "village": "Dal", "commune": "Nhang", "district": "Andoung Meas", "province": "Ratanakiri", "requested_date_by_community": "12/20/2014", "identified_by_mrd": "Yes", "data_source": "MRD_communities", "x": 754387.43644657999, "y": 1546954.0300143401 }, "geometry": { "type": "MultiPoint", "coordinates": [ [ 754387.436446579988115, 1546954.030014340067282 ] ] } },
{ "type": "Feature", "properties": { "map_id": 9, "ethnic": "Brao", "village": "Ka Chanh", "commune": "Lbang Pir", "district": "Lumphat", "province": "Ratanakiri", "requested_date_by_community": "05/06/2010", "identified_by_mrd": "Yes", "data_source": "MRD_communities", "x": 711196.84632093995, "y": 1508282.2382785201 }, "geometry": { "type": "MultiPoint", "coordinates": [ [ 711196.846320939948782, 1508282.238278520060703 ] ] } },
{ "type": "Feature", "properties": { "map_id": 10, "ethnic": "Jarai", "village": "Ka Chut", "commune": "Nhang", "district": "Andoung Meas", "province": "Ratanakiri", "requested_date_by_community": "02/09/2014", "identified_by_mrd": "Yes", "data_source": "MRD_communities", "x": 753614.4642405, "y": 1536805.1069936799 }, "geometry": { "type": "MultiPoint", "coordinates": [ [ 753614.464240500004962, 1536805.106993679888546 ] ] } },
{ "type": "Feature", "properties": { "map_id": 11, "ethnic": "Tumpoun", "village": "Kaeng Sann", "commune": "Seda", "district": "Lumphat", "province": "Ratanakiri", "requested_date_by_community": "04/01/2015", "identified_by_mrd": "Yes", "data_source": "MRD_communities", "x": 739522.65521876002, "y": 1497086.3799477599 }, "geometry": { "type": "MultiPoint", "coordinates": [ [ 739522.655218760017306, 1497086.379947759909555 ] ] } },
{ "type": "Feature", "properties": { "map_id": 12, "ethnic": "Jarai", "village": "Kaet", "commune": "Nhang", "district": "Andoung Meas", "province": "Ratanakiri", "requested_date_by_community": "12/09/2014", "identified_by_mrd": "Yes", "data_source": "MRD_communities", "x": 750705.46765371005, "y": 1545779.0312518701 }, "geometry": { "type": "MultiPoint", "coordinates": [ [ 750705.467653710045852, 1545779.03125187009573 ] ] } },
{ "type": "Feature", "properties": { "map_id": 13, "ethnic": "Kreung", "village": "Kam Bak", "commune": "Teun", "district": "Koun Mom", "province": "Ratanakiri", "requested_date_by_community": "04/07/2010", "identified_by_mrd": "Yes", "data_source": "MRD_communities", "x": 699307.92723701999, "y": 1513033.1793077099 }, "geometry": { "type": "MultiPoint", "coordinates": [ [ 699307.927237019990571, 1513033.179307709913701 ] ] } },
{ "type": "Feature", "properties": { "map_id": 14, "ethnic": "Kreung", "village": "Kam", "commune": "L'ak", "district": "Ou Chum", "province": "Ratanakiri", "requested_date_by_community": "05/06/2010", "identified_by_mrd": "Yes", "data_source": "MRD_communities", "x": 725033.68989492999, "y": 1534021.0687856299 }, "geometry": { "type": "MultiPoint", "coordinates": [ [ 725033.689894929993898, 1534021.0687856299337 ] ] } },
{ "type": "Feature", "properties": { "map_id": 15, "ethnic": "Kachak", "village": "Ka Nat", "commune": "Ta Lav", "district": "Andoung Meas", "province": "Ratanakiri", "requested_date_by_community": "03/23/2010", "identified_by_mrd": "Yes", "data_source": "MRD_communities", "x": 740483.56185244001, "y": 1538545.06552002 }, "geometry": { "type": "MultiPoint", "coordinates": [ [ 740483.561852440005168, 1538545.065520019968972 ] ] } },
{ "type": "Feature", "properties": { "map_id": 16, "ethnic": "Kreung", "village": "Kan Chheung", "commune": "Pouy", "district": "Ou Chum", "province": "Ratanakiri", "requested_date_by_community": "12/11/2009", "identified_by_mrd": "Yes", "data_source": "MRD_communities", "x": 721835.69382964005, "y": 1544396.98213446 }, "geometry": { "type": "MultiPoint", "coordinates": [ [ 721835.693829640047625, 1544396.982134460005909 ] ] } },
{ "type": "Feature", "properties": { "map_id": 17, "ethnic": "Brao", "village": "Ka Tieng", "commune": "Lbang Pir", "district": "Lumphat", "province": "Ratanakiri", "requested_date_by_community": "05/07/2010", "identified_by_mrd": "Yes", "data_source": "MRD_communities", "x": 713922.82109658001, "y": 1510653.2255746101 }, "geometry": { "type": "MultiPoint", "coordinates": [ [ 713922.821096580009907, 1510653.225574610056356 ] ] } },
{ "type": "Feature", "properties": { "map_id": 18, "ethnic": "Brao", "village": "Ka Tieng", "commune": "Lbang Muoy", "district": "Lumphat", "province": "Ratanakiri", "requested_date_by_community": "11/19/2011", "identified_by_mrd": "Yes", "data_source": "MRD_communities", "x": 710301.85971592995, "y": 1504828.26268063 }, "geometry": { "type": "MultiPoint", "coordinates": [ [ 710301.859715929953381, 1504828.262680629966781 ] ] } },
{ "type": "Feature", "properties": { "map_id": 19, "ethnic": "Brao", "village": "Ke Kuong        ", "commune": "Ta Veaeng Kraom", "district": "Ta Veaeng", "province": "Ratanakiri", "requested_date_by_community": "02/25/2012", "identified_by_mrd": "Yes", "data_source": "MRD_communities", "x": 724265.65003462997, "y": 1556871.88980676 }, "geometry": { "type": "MultiPoint", "coordinates": [ [ 724265.650034629972652, 1556871.889806760009378 ] ] } },
{ "type": "Feature", "properties": { "map_id": 20, "ethnic": "Kreung", "village": "Khmaeng", "commune": "Pouy", "district": "Ou Chum", "province": "Ratanakiri", "requested_date_by_community": "09/21/2012", "identified_by_mrd": "Yes", "data_source": "MRD_communities", "x": 720331.72001041996, "y": 1537024.0362334901 }, "geometry": { "type": "MultiPoint", "coordinates": [ [ 720331.720010419958271, 1537024.03623349010013 ] ] } },
{ "type": "Feature", "properties": { "map_id": 21, "ethnic": "Kreung", "village": "Kang Koy", "commune": "Pouy", "district": "Ou Chum", "province": "Ratanakiri", "requested_date_by_community": "10/06/2009", "identified_by_mrd": "Yes", "data_source": "MRD_communities", "x": 726154.66853029002, "y": 1540374.0219453999 }, "geometry": { "type": "MultiPoint", "coordinates": [ [ 726154.668530290015042, 1540374.021945399930701 ] ] } },
{ "type": "Feature", "properties": { "map_id": 22, "ethnic": "Jarai", "village": "Kong Thum", "commune": "Pa Te", "district": "Ou Ya Dav", "province": "Ratanakiri", "requested_date_by_community": "04/05/2010", "identified_by_mrd": "Yes", "data_source": "MRD_communities", "x": 753146.52594276005, "y": 1509665.3137790901 }, "geometry": { "type": "MultiPoint", "coordinates": [ [ 753146.525942760054022, 1509665.313779090065509 ] ] } },
{ "type": "Feature", "properties": { "map_id": 23, "ethnic": "Jarai", "village": "Kong Yu", "commune": "Pa Te", "district": "Ou Ya Dav", "province": "Ratanakiri", "requested_date_by_community": "04/05/2010", "identified_by_mrd": "Yes", "data_source": "MRD_communities", "x": 750792.54189659003, "y": 1510564.30191406 }, "geometry": { "type": "MultiPoint", "coordinates": [ [ 750792.541896590031683, 1510564.301914060022682 ] ] } },
{ "type": "Feature", "properties": { "map_id": 24, "ethnic": "Kreung", "village": "Kreh", "commune": "Pouy", "district": "Ou Chum", "province": "Ratanakiri", "requested_date_by_community": "10/05/2009", "identified_by_mrd": "Yes", "data_source": "MRD_communities", "x": 720947.70734910003, "y": 1540962.0070133801 }, "geometry": { "type": "MultiPoint", "coordinates": [ [ 720947.707349100033753, 1540962.007013380061835 ] ] } },
{ "type": "Feature", "properties": { "map_id": 25, "ethnic": "Kalaet", "village": "La Lai", "commune": "Kok Lak", "district": "Veun Sai", "province": "Ratanakiri", "requested_date_by_community": "03/13/2012", "identified_by_mrd": "Yes", "data_source": "MRD_communities", "x": 702094.84031593997, "y": 1547653.9182050801 }, "geometry": { "type": "MultiPoint", "coordinates": [ [ 702094.840315939974971, 1547653.918205080088228 ] ] } },
{ "type": "Feature", "properties": { "map_id": 26, "ethnic": "Jarai", "village": "Laom", "commune": "Malik", "district": "Andoung Meas", "province": "Ratanakiri", "requested_date_by_community": "12/21/2012", "identified_by_mrd": "Yes", "data_source": "MRD_communities", "x": 748089.51556658, "y": 1532614.1274914199 }, "geometry": { "type": "MultiPoint", "coordinates": [ [ 748089.51556657999754, 1532614.127491419902071 ] ] } },
{ "type": "Feature", "properties": { "map_id": 27, "ethnic": "Tumpoun", "village": "Malik", "commune": "Malik", "district": "Andoung Meas", "province": "Ratanakiri", "requested_date_by_community": "03/23/2010", "identified_by_mrd": "Yes", "data_source": "MRD_communities", "x": 744889.54121427995, "y": 1532114.1244536401 }, "geometry": { "type": "MultiPoint", "coordinates": [ [ 744889.541214279946871, 1532114.124453640077263 ] ] } },
{ "type": "Feature", "properties": { "map_id": 28, "ethnic": "Tumpoun", "village": "Pa Ar", "commune": "Keh Chong", "district": "Bar Kaev", "province": "Ratanakiri", "requested_date_by_community": "12/30/2009", "identified_by_mrd": "Yes", "data_source": "MRD_communities", "x": 742290.57912699995, "y": 1523618.1843348299 }, "geometry": { "type": "MultiPoint", "coordinates": [ [ 742290.579126999946311, 1523618.184334829915315 ] ] } },
{ "type": "Feature", "properties": { "map_id": 29, "ethnic": "Jarai", "village": "Peak", "commune": "Ya Tung", "district": "Ou Ya Dav", "province": "Ratanakiri", "requested_date_by_community": "05/06/2010", "identified_by_mrd": "Yes", "data_source": "MRD_communities", "x": 759651.47157504002, "y": 1512119.30930569 }, "geometry": { "type": "MultiPoint", "coordinates": [ [ 759651.47157504002098, 1512119.309305689996108 ] ] } },
{ "type": "Feature", "properties": { "map_id": 30, "ethnic": "Jarai", "village": "Pa Tang", "commune": "Sesan", "district": "Ou Ya Dav", "province": "Ratanakiri", "requested_date_by_community": "04/01/2015", "identified_by_mrd": "Yes", "data_source": "MRD_communities", "x": 761635.42764888005, "y": 1525301.21285473 }, "geometry": { "type": "MultiPoint", "coordinates": [ [ 761635.427648880053312, 1525301.212854729965329 ] ] } },
{ "type": "Feature", "properties": { "map_id": 31, "ethnic": "Tumpoun", "village": "Pa Tat", "commune": "Seda", "district": "Lumphat", "province": "Ratanakiri", "requested_date_by_community": "04/04/2012", "identified_by_mrd": "Yes", "data_source": "MRD_communities", "x": 739114.64687385003, "y": 1502688.3369162099 }, "geometry": { "type": "MultiPoint", "coordinates": [ [ 739114.646873850026168, 1502688.336916209897026 ] ] } },
{ "type": "Feature", "properties": { "map_id": 32, "ethnic": "Jarai", "village": "Plang", "commune": "Pa Te", "district": "Ou Ya Dav", "province": "Ratanakiri", "requested_date_by_community": "12/30/2009", "identified_by_mrd": "Yes", "data_source": "MRD_communities", "x": 753775.51941963995, "y": 1510610.3079226101 }, "geometry": { "type": "MultiPoint", "coordinates": [ [ 753775.519419639953412, 1510610.307922610081732 ] ] } },
{ "type": "Feature", "properties": { "map_id": 33, "ethnic": "Jarai", "village": "Pak Touch", "commune": "Pak Nhai", "district": "Ou Ya Dav", "province": "Ratanakiri", "requested_date_by_community": "12/07/2011", "identified_by_mrd": "Yes", "data_source": "MRD_communities", "x": 765045.41549051995, "y": 1518922.2692820299 }, "geometry": { "type": "MultiPoint", "coordinates": [ [ 765045.415490519953892, 1518922.269282029941678 ] ] } },
{ "type": "Feature", "properties": { "map_id": 34, "ethnic": "Jarai", "village": "Pril", "commune": "Bar Kham", "district": "Ou Ya Dav", "province": "Ratanakiri", "requested_date_by_community": "11/08/2012", "identified_by_mrd": "Yes", "data_source": "MRD_communities", "x": 748356.57850802003, "y": 1502041.3612599 }, "geometry": { "type": "MultiPoint", "coordinates": [ [ 748356.578508020029403, 1502041.361259900033474 ] ] } },
{ "type": "Feature", "properties": { "map_id": 35, "ethnic": "Brao", "village": "Phyang", "commune": "Ta Veaeng Kraom", "district": "Ta Veaeng", "province": "Ratanakiri", "requested_date_by_community": "10/08/2012", "identified_by_mrd": "Yes", "data_source": "MRD_communities", "x": 724082.65114028996, "y": 1556972.88859762 }, "geometry": { "type": "MultiPoint", "coordinates": [ [ 724082.651140289963223, 1556972.888597619952634 ] ] } },
{ "type": "Feature", "properties": { "map_id": 36, "ethnic": "Kavet", "village": "Rak", "commune": "Kok Lak", "district": "Veun Sai", "province": "Ratanakiri", "requested_date_by_community": "03/13/2012", "identified_by_mrd": "Yes", "data_source": "MRD_communities", "x": 700257.84678545, "y": 1551688.8833234501 }, "geometry": { "type": "MultiPoint", "coordinates": [ [ 700257.846785450004973, 1551688.883323450107127 ] ] } },
{ "type": "Feature", "properties": { "map_id": 37, "ethnic": "Tumpoun", "village": "Sa \tKrieng", "commune": "Keh Chong", "district": "Bar Kaev", "province": "Ratanakiri", "requested_date_by_community": "12/01/2011", "identified_by_mrd": "Yes", "data_source": "MRD_communities", "x": 749513.51971100003, "y": 1525624.1842886601 }, "geometry": { "type": "MultiPoint", "coordinates": [ [ 749513.519711000029929, 1525624.18428866006434 ] ] } },
{ "type": "Feature", "properties": { "map_id": 38, "ethnic": "Tumpoun", "village": "Samot Leu", "commune": "Seda", "district": "Lumphat", "province": "Ratanakiri", "requested_date_by_community": "11/17/2009", "identified_by_mrd": "Yes", "data_source": "MRD_communities", "x": 737052.67710742005, "y": 1495531.3866999701 }, "geometry": { "type": "MultiPoint", "coordinates": [ [ 737052.67710742005147, 1495531.386699970113114 ] ] } },
{ "type": "Feature", "properties": { "map_id": 39, "ethnic": "Tumpoun", "village": "Samot Kraom", "commune": "Seda", "district": "Lumphat", "province": "Ratanakiri", "requested_date_by_community": "11/18/2009", "identified_by_mrd": "Yes", "data_source": "MRD_communities", "x": 749565.63151731004, "y": 1472762.58292577 }, "geometry": { "type": "MultiPoint", "coordinates": [ [ 749565.631517310044728, 1472762.582925769966096 ] ] } },
{ "type": "Feature", "properties": { "map_id": 40, "ethnic": "Brao", "village": "Sieng Say", "commune": "Ta Veaeng Kraom", "district": "Ta Veaeng", "province": "Ratanakiri", "requested_date_by_community": "10/10/2012", "identified_by_mrd": "Yes", "data_source": "MRD_communities", "x": 723840.65273696999, "y": 1557064.8875399199 }, "geometry": { "type": "MultiPoint", "coordinates": [ [ 723840.652736969990656, 1557064.887539919931442 ] ] } },
{ "type": "Feature", "properties": { "map_id": 41, "ethnic": "Tumpoun", "village": "Saeung", "commune": "Saeung", "district": "Bar Kaev", "province": "Ratanakiri", "requested_date_by_community": "11/10/2010", "identified_by_mrd": "Yes", "data_source": "MRD_communities", "x": 740636.62067639001, "y": 1509743.2866237599 }, "geometry": { "type": "MultiPoint", "coordinates": [ [ 740636.620676390011795, 1509743.2866237598937 ] ] } },
{ "type": "Feature", "properties": { "map_id": 42, "ethnic": "Tumpoun", "village": "Su", "commune": "La Minh", "district": "Bar Kaev", "province": "Ratanakiri", "requested_date_by_community": "05/06/2010", "identified_by_mrd": "Yes", "data_source": "MRD_communities", "x": 738773.63396152004, "y": 1510052.2803493 }, "geometry": { "type": "MultiPoint", "coordinates": [ [ 738773.633961520041339, 1510052.28034930001013 ] ] } },
{ "type": "Feature", "properties": { "map_id": 43, "ethnic": "Kreung", "village": "Svay", "commune": "Pouy", "district": "Ou Chum", "province": "Ratanakiri", "requested_date_by_community": "11/07/2011", "identified_by_mrd": "Yes", "data_source": "MRD_communities", "x": 717443.74439702998, "y": 1535982.03853077 }, "geometry": { "type": "MultiPoint", "coordinates": [ [ 717443.744397029979154, 1535982.038530769990757 ] ] } },
{ "type": "Feature", "properties": { "map_id": 44, "ethnic": "Kreung", "village": "Ta Ang Ka Te", "commune": "Ta Ang", "district": "Koun Mom", "province": "Ratanakiri", "requested_date_by_community": "12/21/2012", "identified_by_mrd": "Yes", "data_source": "MRD_communities", "x": 710485.84348904004, "y": 1512555.2043011801 }, "geometry": { "type": "MultiPoint", "coordinates": [ [ 710485.843489040038548, 1512555.204301180085167 ] ] } },
{ "type": "Feature", "properties": { "map_id": 45, "ethnic": "Kreung", "village": "Ta Heuy", "commune": "Teun", "district": "Koun Mom", "province": "Ratanakiri", "requested_date_by_community": "08/09/2012", "identified_by_mrd": "Yes", "data_source": "MRD_communities", "x": 701366.90575057, "y": 1516133.15969548 }, "geometry": { "type": "MultiPoint", "coordinates": [ [ 701366.905750570003875, 1516133.159695480018854 ] ] } },
{ "type": "Feature", "properties": { "map_id": 46, "ethnic": "Jarai", "village": "Tang Se", "commune": "Nhang", "district": "Andoung Meas", "province": "Ratanakiri", "requested_date_by_community": "12/21/2014", "identified_by_mrd": "Yes", "data_source": "MRD_communities", "x": 757293.41196411999, "y": 1547895.0290473399 }, "geometry": { "type": "MultiPoint", "coordinates": [ [ 757293.411964119994082, 1547895.029047339921817 ] ] } },
{ "type": "Feature", "properties": { "map_id": 47, "ethnic": "Kreung", "village": "Ta Ngeach", "commune": "Pouy", "district": "Ou Chum", "province": "Ratanakiri", "requested_date_by_community": "04/21/2010", "identified_by_mrd": "Yes", "data_source": "MRD_communities", "x": 716763.74644390994, "y": 1537574.02485742 }, "geometry": { "type": "MultiPoint", "coordinates": [ [ 716763.746443909942172, 1537574.02485742000863 ] ] } },
{ "type": "Feature", "properties": { "map_id": 48, "ethnic": "Jarai", "village": "Tang Chea", "commune": "Nhang", "district": "Andoung Meas", "province": "Ratanakiri", "requested_date_by_community": "10/07/2014", "identified_by_mrd": "Yes", "data_source": "MRD_communities", "x": 751784.45685906999, "y": 1546874.02510478 }, "geometry": { "type": "MultiPoint", "coordinates": [ [ 751784.456859069992788, 1546874.025104779982939 ] ] } },
{ "type": "Feature", "properties": { "map_id": 49, "ethnic": "Tumpoun", "village": "Thmei", "commune": "Seda", "district": "Lumphat", "province": "Ratanakiri", "requested_date_by_community": "07/06/2010", "identified_by_mrd": "Yes", "data_source": "MRD_communities", "x": 731883.70375474996, "y": 1501411.33172521 }, "geometry": { "type": "MultiPoint", "coordinates": [ [ 731883.703754749963991, 1501411.331725209951401 ] ] } },
{ "type": "Feature", "properties": { "map_id": 50, "ethnic": "Kreung", "village": "Thuoy Tum", "commune": "Cha Ung", "district": "Ou Chum", "province": "Ratanakiri", "requested_date_by_community": "11/17/2011", "identified_by_mrd": "Yes", "data_source": "MRD_communities", "x": 708595.83622304001, "y": 1523766.1150352301 }, "geometry": { "type": "MultiPoint", "coordinates": [ [ 708595.836223040008917, 1523766.115035230061039 ] ] } },
{ "type": "Feature", "properties": { "map_id": 51, "ethnic": "Kreung", "village": "\tTus", "commune": "Ta Ang", "district": "Koun Mom", "province": "Ratanakiri", "requested_date_by_community": "04/23/2015", "identified_by_mrd": "Yes", "data_source": "MRD_communities", "x": 708240.85726108996, "y": 1514134.18793813 }, "geometry": { "type": "MultiPoint", "coordinates": [ [ 708240.857261089957319, 1514134.187938129995018 ] ] } },
{ "type": "Feature", "properties": { "map_id": 52, "ethnic": "Kreung", "village": "Torng Kamal", "commune": "Ou Chum", "district": "Ou Chum", "province": "Ratanakiri", "requested_date_by_community": "12/30/2009", "identified_by_mrd": "Yes", "data_source": "MRD_communities", "x": 715254.77953147003, "y": 1526678.10585558 }, "geometry": { "type": "MultiPoint", "coordinates": [ [ 715254.779531470034271, 1526678.105855579953641 ] ] } },
{ "type": "Feature", "properties": { "map_id": 53, "ethnic": "Brao", "village": "Tumpuon Reung Thum", "commune": "Ta Veaeng Kraom", "district": "Ta Veaeng", "province": "Ratanakiri", "requested_date_by_community": "04/20/2015", "identified_by_mrd": "Yes", "data_source": "MRD_communities", "x": 722751.65997995005, "y": 1557760.8797962 }, "geometry": { "type": "MultiPoint", "coordinates": [ [ 722751.659979950054549, 1557760.879796199966222 ] ] } },
{ "type": "Feature", "properties": { "map_id": 54, "ethnic": "Brao", "village": "\tTumpuon Reung Touch", "commune": "Ta Veaeng Kraom", "district": "Ta Veaeng", "province": "Ratanakiri", "requested_date_by_community": "12/15/2012", "identified_by_mrd": "Yes", "data_source": "MRD_communities", "x": 726081.63932749, "y": 1555105.90727332 }, "geometry": { "type": "MultiPoint", "coordinates": [ [ 726081.63932749000378, 1555105.90727332001552 ] ] } },
{ "type": "Feature", "properties": { "map_id": 55, "ethnic": "Tumpoun", "village": "Yaem", "commune": "Saeung", "district": "Bar Kaev", "province": "Ratanakiri", "requested_date_by_community": "04/07/2010", "identified_by_mrd": "Yes", "data_source": "MRD_communities", "x": 742765.61048765003, "y": 1506901.31265998 }, "geometry": { "type": "MultiPoint", "coordinates": [ [ 742765.610487650032155, 1506901.31265998003073 ] ] } },
{ "type": "Feature", "properties": { "map_id": 56, "ethnic": "Tumpoun", "village": "La En", "commune": "Teun", "district": "Koun Mom", "province": "Ratanakiri", "requested_date_by_community": "05/12/2006", "identified_by_mrd": "Yes", "data_source": "MRD_communities", "x": 703859.86353335006, "y": 1506059.2773627399 }, "geometry": { "type": "MultiPoint", "coordinates": [ [ 703859.863533350056969, 1506059.277362739900127 ] ] } },
{ "type": "Feature", "properties": { "map_id": 57, "ethnic": "Tumpoun", "village": "L'eun Chong", "commune": "Ou Chum", "district": "Ou Chum", "province": "Ratanakiri", "requested_date_by_community": "Not found", "identified_by_mrd": "Yes", "data_source": "MRD_communities", "x": 719368.81480454002, "y": 1525848.2793827299 }, "geometry": { "type": "MultiPoint", "coordinates": [ [ 719368.814804540015757, 1525848.279382729902864 ] ] } },
{ "type": "Feature", "properties": { "map_id": 58, "ethnic": "Tumpoun", "village": "L'eun Kraen", "commune": "Ou Chum", "district": "Ou Chum", "province": "Ratanakiri", "requested_date_by_community": "Not found", "identified_by_mrd": "Yes", "data_source": "MRD_communities", "x": 719424.70798887999, "y": 1524512.87459724 }, "geometry": { "type": "MultiPoint", "coordinates": [ [ 719424.707988879992627, 1524512.874597240006551 ] ] } }
]
}
