{
"type": "FeatureCollection",
"name": "05_indigenous_registered_lands",
"crs": { "type": "name", "properties": { "name": "urn:ogc:def:crs:EPSG::32648" } },
"features": [
{ "type": "Feature", "properties": { "map_id": "ip_01", "ip_name": "Phnnong", "num_family": "116", "village": "Pu Trom", "commune": "Romonea", "district": "Sen Monorom", "province": "Mondulkiri", "land_size": "1005", "titled_par": "53", "residentia": "24", "tradi_agri": "29", "swidden_fa": "Not found", "burial _fo": "Not found", "forest_lan": "Not found", "date_titli": "Not found", "reference": "Sub_decree_No_128__16.09.2015.pdf", "latest_upd": "15/2/2016", "language": "English" }, "geometry": { "type": "MultiPoint", "coordinates": [ [ 737679.919411425478756, 1375715.253674601903185 ] ] } },
{ "type": "Feature", "properties": { "map_id": "ip_08", "ip_name": "Phnnong", "num_family": "37", "village": "Ou Kak", "commune": "Ou Krieng", "district": "Sambour", "province": "Kratie", "land_size": "402.04", "titled_par": "21", "residentia": "5", "tradi_agri": "9", "swidden_fa": "6", "burial _fo": "Not found", "forest_lan": "1", "date_titli": "Not found", "reference": "Sub_decree_No_186__24.12.2015.pdf", "latest_upd": "15/2/2016", "language": "English" }, "geometry": { "type": "MultiPoint", "coordinates": [ [ 619075.692177402321249, 1445133.575183149892837 ] ] } },
{ "type": "Feature", "properties": { "map_id": "ip_02", "ip_name": "Phnnong", "num_family": "27", "village": "Ou Chrar", "commune": "Srae Preah", "district": "Keo Seima", "province": "Mondulkiri", "land_size": "293.51", "titled_par": "24", "residentia": "10", "tradi_agri": "14", "swidden_fa": "Not found", "burial _fo": "Not found", "forest_lan": "Not found", "date_titli": "Not found", "reference": "Sub_decree_No_62__13.02.2013.pdf", "latest_upd": "15/2/2016", "language": "English" }, "geometry": { "type": "MultiPoint", "coordinates": [ [ 700645.216648239758797, 1353833.330929544055834 ] ] } },
{ "type": "Feature", "properties": { "map_id": "ip_03", "ip_name": "Phnnong", "num_family": "45", "village": "Hkati", "commune": "Srae Preah", "district": "Keo Seima", "province": "Mondulkiri", "land_size": "417.8", "titled_par": "18", "residentia": "8", "tradi_agri": "10", "swidden_fa": "Not found", "burial _fo": "Not found", "forest_lan": "Not found", "date_titli": "07/03/2013", "reference": "Hkati_land_title__07.03.2013.pdf;Sub_decree_No_62__13.02.2013.pdf", "latest_upd": "15/2/2016", "language": "English" }, "geometry": { "type": "MultiPoint", "coordinates": [ [ 701307.203111054492183, 1358636.300115973921493 ] ] } },
{ "type": "Feature", "properties": { "map_id": "ip_04", "ip_name": "Phnnong", "num_family": "31", "village": "Srae Lvi", "commune": "Srae Khtum", "district": "Keo Seima", "province": "Mondulkiri", "land_size": "358.51", "titled_par": "Not found", "residentia": "Not found", "tradi_agri": "Not found", "swidden_fa": "Not found", "burial _fo": "Not found", "forest_lan": "Not found", "date_titli": "Not found", "reference": "Sub_decree_No_239__16.05.2013.pdf", "latest_upd": "15/2/2016", "language": "English" }, "geometry": { "type": "MultiPoint", "coordinates": [ [ 703877.207058249041438, 1347277.38202013890259 ] ] } },
{ "type": "Feature", "properties": { "map_id": "ip_05", "ip_name": "Phnnong", "num_family": "93", "village": "Srae Khtum", "commune": "Srae Khtum", "district": "Keo Seima", "province": "Mondulkiri", "land_size": "512.42", "titled_par": "Not found", "residentia": "Not found", "tradi_agri": "Not found", "swidden_fa": "Not found", "burial _fo": "Not found", "forest_lan": "Not found", "date_titli": "Not found", "reference": "Sub_decree_No_250__18.05.2013.pdf", "latest_upd": "15/2/2016", "language": "English" }, "geometry": { "type": "MultiPoint", "coordinates": [ [ 695056.280122029129416, 1339788.416354332119226 ] ] } },
{ "type": "Feature", "properties": { "map_id": "ip_06", "ip_name": "Phnnong", "num_family": "80", "village": "Ou Rona", "commune": "Srae Khtum", "district": "Keo Seima", "province": "Mondulkiri", "land_size": "406.88", "titled_par": "Not found", "residentia": "Not found", "tradi_agri": "Not found", "swidden_fa": "Not found", "burial _fo": "Not found", "forest_lan": "Not found", "date_titli": "Not found", "reference": "Sub_decree_No_247__18.05.2013.pdf", "latest_upd": "15/2/2016", "language": "English" }, "geometry": { "type": "MultiPoint", "coordinates": [ [ 705003.213819038006477, 1339743.43556471937336 ] ] } },
{ "type": "Feature", "properties": { "map_id": "ip_21", "ip_name": "Prov", "num_family": "Not found", "village": "Not found", "commune": "Lbang 1; Lbang 2", "district": "Lumphat; Kachannh; Ban Lung", "province": "Ratanakiri", "land_size": "588.4815", "titled_par": "Not found", "residentia": "Not found", "tradi_agri": "Not found", "swidden_fa": "Not found", "burial _fo": "Not found", "forest_lan": "Not found", "date_titli": "Not found", "reference": "Sub_decree_No_86__27.06.2019.pdf", "latest_upd": "27/6/2019", "language": "English" }, "geometry": { "type": "MultiPoint", "coordinates": [ [ 714281.387182376929559, 1511081.942659975029528 ] ] } },
{ "type": "Feature", "properties": { "map_id": "ip_10", "ip_name": "Tumpoun", "num_family": "Not found", "village": "La En Kraen", "commune": "Ou Chum", "district": "Ou Chum", "province": "Ratanakiri", "land_size": "920", "titled_par": "Not found", "residentia": "Not found", "tradi_agri": "Not found", "swidden_fa": "Not found", "burial _fo": "Not found", "forest_lan": "Not found", "date_titli": "Not found", "reference": "Remark_by_HE_Im_Chhun_Lim__19.06.2007.pdf;Lesson_Learnt_of_CLT_for_IC_in_La_in_village__15.03.2007.pdf;3_IC_to_receive_CLTs_.pdf", "latest_upd": "15/2/2016", "language": "English" }, "geometry": { "type": "MultiPoint", "coordinates": [ [ 719422.751956101041287, 1524510.130831099580973 ] ] } },
{ "type": "Feature", "properties": { "map_id": "ip_11", "ip_name": "Phnnong", "num_family": "Not found", "village": "Andong Kraloeng", "commune": "Sen Monorom", "district": "Ou Raing", "province": "Mondulkiri", "land_size": "1425", "titled_par": "Not found", "residentia": "Not found", "tradi_agri": "Not found", "swidden_fa": "Not found", "burial _fo": "Not found", "forest_lan": "Not found", "date_titli": "01/01/2012", "reference": "Remark_by_HE_Im_Chhun_Lim__19.06.2007.pdf;Lesson_Learnt_of_CLT_for_IC_in_La_in_village__15.03.2007.pdf;3_IC_to_receive_CLTs_.pdf", "latest_upd": "15/2/2016", "language": "English" }, "geometry": { "type": "MultiPoint", "coordinates": [ [ 742538.898335248115472, 1369691.306174752535298 ] ] } },
{ "type": "Feature", "properties": { "map_id": "ip_07", "ip_name": "Phnnong", "num_family": "132", "village": "Pon Chea", "commune": "Ou Krieng", "district": "Sambour", "province": "Kratie", "land_size": "597.31", "titled_par": "35", "residentia": "14", "tradi_agri": "14", "swidden_fa": "6", "burial _fo": "1", "forest_lan": "Not found", "date_titli": "Not found", "reference": "Sub_Decree_No_185__24.12.2015.pdf", "latest_upd": "15/2/2016", "language": "English" }, "geometry": { "type": "MultiPoint", "coordinates": [ [ 617617.257391896680929, 1439007.41574784531258 ] ] } },
{ "type": "Feature", "properties": { "map_id": "ip_13", "ip_name": "Kreung", "num_family": "205", "village": "Not found", "commune": "Kalai; Ou Chum; Pouy; L'ak", "district": "Ou Chum", "province": "Ratanakiri", "land_size": "1496.3127", "titled_par": "21", "residentia": "2", "tradi_agri": "9", "swidden_fa": "7", "burial _fo": "1", "forest_lan": "2", "date_titli": "Not found", "reference": "Sub-decree.No.125__16.06.2016.pdf", "latest_upd": "29/07/2016", "language": "English" }, "geometry": { "type": "MultiPoint", "coordinates": [ [ 715578.702849059132859, 1535873.5562611927744 ] ] } },
{ "type": "Feature", "properties": { "map_id": "ip_12", "ip_name": "Tumpoun", "num_family": "96", "village": "Not found", "commune": "Ou Chum; L'ak", "district": "Ou Chum", "province": "Ratanakiri", "land_size": "605.8134", "titled_par": "16", "residentia": "7", "tradi_agri": "6", "swidden_fa": "1", "burial _fo": "1", "forest_lan": "1", "date_titli": "Not found", "reference": "Sub-decree.No.124__16.06.2016.pdf", "latest_upd": "29/07/2016", "language": "English" }, "geometry": { "type": "MultiPoint", "coordinates": [ [ 718907.783234384842217, 1529789.374015895649791 ] ] } },
{ "type": "Feature", "properties": { "map_id": "ip_14", "ip_name": "Kreung", "num_family": "165", "village": "Not found", "commune": "L'ak", "district": "Ou Chum", "province": "Ratanakiri", "land_size": "846.8997", "titled_par": "20", "residentia": "10", "tradi_agri": "10", "swidden_fa": "Not found", "burial _fo": "Not found", "forest_lan": "Not found", "date_titli": "Not found", "reference": "Sub-decree.No.194__20.09.2016.pdf", "latest_upd": "2/12/2016", "language": "English" }, "geometry": { "type": "MultiPoint", "coordinates": [ [ 722736.999712128075771, 1531343.99995534401387 ] ] } },
{ "type": "Feature", "properties": { "map_id": "ip_15", "ip_name": "Kreung", "num_family": "73", "village": "Kreh", "commune": "Pouy", "district": "Ou Chum", "province": "Ratanakiri", "land_size": "744.9148", "titled_par": "12", "residentia": "5", "tradi_agri": "7", "swidden_fa": "Not found", "burial _fo": "Not found", "forest_lan": "Not found", "date_titli": "Not found", "reference": "sub_decree_74__22.05.2017.pdf", "latest_upd": "7/22/2017", "language": "English" }, "geometry": { "type": "MultiPoint", "coordinates": [ [ 720947.707588067161851, 1540962.007498840335757 ] ] } },
{ "type": "Feature", "properties": { "map_id": "ip_16", "ip_name": "Kreung", "num_family": "70", "village": "Ta ngach", "commune": "Pouy", "district": "Ou Chum", "province": "Ratanakiri", "land_size": "519.2114", "titled_par": "7", "residentia": "4", "tradi_agri": "3", "swidden_fa": "Not found", "burial _fo": "Not found", "forest_lan": "Not found", "date_titli": "Not found", "reference": "sub_decree_74__22.05.2017.pdf", "latest_upd": "7/22/2017", "language": "English" }, "geometry": { "type": "MultiPoint", "coordinates": [ [ 716763.7459960388951, 1537574.024475106503814 ] ] } },
{ "type": "Feature", "properties": { "map_id": "ip_17", "ip_name": "Kreung", "num_family": "43", "village": "Kang Koy", "commune": "Pouy", "district": "Ou Chum", "province": "Ratanakiri", "land_size": "457.1336", "titled_par": "2", "residentia": "1", "tradi_agri": "1", "swidden_fa": "Not found", "burial _fo": "Not found", "forest_lan": "Not found", "date_titli": "Not found", "reference": "sub_decree_74__22.05.2017.pdf", "latest_upd": "7/22/2017", "language": "English" }, "geometry": { "type": "MultiPoint", "coordinates": [ [ 726154.668719825567678, 1540374.022421968402341 ] ] } },
{ "type": "Feature", "properties": { "map_id": "ip_18", "ip_name": "Kreung", "num_family": "106", "village": "Khan Cheurng", "commune": "Pouy", "district": "Ou Chum", "province": "Ratanakiri", "land_size": "1410.0943", "titled_par": "5", "residentia": "3", "tradi_agri": "2", "swidden_fa": "Not found", "burial _fo": "Not found", "forest_lan": "Not found", "date_titli": "Not found", "reference": "sub_decree_74__22.05.2017.pdf", "latest_upd": "7/22/2017", "language": "English" }, "geometry": { "type": "MultiPoint", "coordinates": [ [ 721835.694274350185879, 1544396.981834785314277 ] ] } },
{ "type": "Feature", "properties": { "map_id": "ip_20", "ip_name": "Kraol", "num_family": "223", "village": "Rovieng", "commune": "Srae Chis", "district": "Sambour", "province": "Kratie", "land_size": "1125.77", "titled_par": "32", "residentia": "15", "tradi_agri": "17", "swidden_fa": "Not found", "burial _fo": "Not found", "forest_lan": "Not found", "date_titli": "Not found", "reference": "Sub_decree_no_09__23.01.2018.pdf", "latest_upd": "6/4/2018", "language": "English" }, "geometry": { "type": "MultiPoint", "coordinates": [ [ 659937.365133575862274, 1430924.717609961284325 ] ] } },
{ "type": "Feature", "properties": { "map_id": "ip_19", "ip_name": "Mel", "num_family": "237", "village": "Paklae", "commune": "Roluos Mean Chey", "district": "Sambour", "province": "Kratie", "land_size": "895.18", "titled_par": "26", "residentia": "14", "tradi_agri": "12", "swidden_fa": "Not found", "burial _fo": "Not found", "forest_lan": "Not found", "date_titli": "Not found", "reference": "Sub_decree_no_08__23.01.2018.pdf", "latest_upd": "6/4/2018", "language": "English" }, "geometry": { "type": "MultiPoint", "coordinates": [ [ 646530.454756780643947, 1434653.66893879766576 ] ] } },
{ "type": "Feature", "properties": { "map_id": "ip_09", "ip_name": "Tumpoun, Kreung", "num_family": "129", "village": "Le En", "commune": "Teun", "district": "Koun Mom", "province": "Ratanakiri", "land_size": "1454", "titled_par": "Not found", "residentia": "Not found", "tradi_agri": "Not found", "swidden_fa": "Not found", "burial _fo": "Not found", "forest_lan": "Not found", "date_titli": "Not found", "reference": "Remark_by_HE_Im_Chhun_Lim__19.06.2007.pdf;Lesson_Learnt_of_CLT_for_IC_in_La_in_village__15.03.2007.pdf;3_IC_to_receive_CLTs_.pdf", "latest_upd": "15/2/2016", "language": "English" }, "geometry": { "type": "MultiPoint", "coordinates": [ [ 703866.905950387008488, 1506056.2410883246921 ] ] } },
{ "type": "Feature", "properties": { "map_id": "ip_22", "ip_name": "Kreung", "num_family": "67", "village": "Not found", "commune": "Ta Lat", "district": "Sesan", "province": "Stung Treng", "land_size": "331.5", "titled_par": "15", "residentia": "5", "tradi_agri": "10", "swidden_fa": "Not found", "burial _fo": "Not found", "forest_lan": "Not found", "date_titli": "Not found", "reference": "Sub_Decree_No_204__09.12.2019.pdf", "latest_upd": "9/4/2020", "language": "English" }, "geometry": { "type": "MultiPoint", "coordinates": [ [ 673976.557752909837291, 1519245.529716326156631 ] ] } },
{ "type": "Feature", "properties": { "map_id": "ip_23", "ip_name": "Prov", "num_family": "57", "village": "Not found", "commune": "Ta Veaeng Kraom; Koh Pong", "district": "Ta Veaeng; Vern Sai", "province": "Ratanakiri", "land_size": "281.5882", "titled_par": "14", "residentia": "1", "tradi_agri": "13", "swidden_fa": "Not found", "burial _fo": "Not found", "forest_lan": "Not found", "date_titli": "Not found", "reference": "Sub_Decree_No_205__09.12.2019.pdf", "latest_upd": "9/4/2020", "language": "English" }, "geometry": { "type": "MultiPoint", "coordinates": [ [ 720749.235419313539751, 1557018.304439718136564 ] ] } },
{ "type": "Feature", "properties": { "map_id": "ip_24", "ip_name": "Prov", "num_family": "64", "village": "Not found", "commune": "Ta Veaeng Kraom; Koh Pong", "district": "Ta Veaeng; Vern Sai", "province": "Ratanakiri", "land_size": "586.5047", "titled_par": "13", "residentia": "5", "tradi_agri": "8", "swidden_fa": "Not found", "burial _fo": "Not found", "forest_lan": "Not found", "date_titli": "Not found", "reference": "Sub_Decree_No_206__09.12.2019.pdf", "latest_upd": "9/4/2020", "language": "English" }, "geometry": { "type": "MultiPoint", "coordinates": [ [ 720227.718590640462935, 1558642.458515968406573 ] ] } },
{ "type": "Feature", "properties": { "map_id": "ip_25", "ip_name": "Kavet", "num_family": "106", "village": "Lalai", "commune": "Kok Lak", "district": "Vern Sai", "province": "Ratanakiri", "land_size": "1010.6613", "titled_par": "5", "residentia": "4", "tradi_agri": "1", "swidden_fa": "Not found", "burial _fo": "Not found", "forest_lan": "Not found", "date_titli": "Not found", "reference": "Sub_Decree_No_203__08.12.2020.pdf", "latest_upd": "24/2/2021", "language": "English" }, "geometry": { "type": "MultiPoint", "coordinates": [ [ 699744.910573173547164, 1551577.243012821767479 ] ] } },
{ "type": "Feature", "properties": { "map_id": "ip_26", "ip_name": "Kavet", "num_family": "170", "village": "Rok", "commune": "Kok Lak", "district": "Vern Sai", "province": "Ratanakiri", "land_size": "1146.0241", "titled_par": "6", "residentia": "4", "tradi_agri": "2", "swidden_fa": "Not found", "burial _fo": "Not found", "forest_lan": "Not found", "date_titli": "Not found", "reference": "Sub_Decree_No_205__20208.12.2020.pdf", "latest_upd": "24/2/2021", "language": "English" }, "geometry": { "type": "MultiPoint", "coordinates": [ [ 699580.104466031538323, 1550692.319525239057839 ] ] } },
{ "type": "Feature", "properties": { "map_id": "ip_27", "ip_name": "Jarai", "num_family": "50", "village": "Sala", "commune": "Kak", "district": "Bar Kaev", "province": "Ratanakiri", "land_size": "331.7539", "titled_par": "38", "residentia": "8", "tradi_agri": "30", "swidden_fa": "Not found", "burial _fo": "Not found", "forest_lan": "Not found", "date_titli": "Not found", "reference": "Sub_Decree_No_204__20208.12.2020.pdf", "latest_upd": "24/2/2021", "language": "English" }, "geometry": { "type": "MultiPoint", "coordinates": [ [ 743546.318541060434654, 1518500.931891412008554 ] ] } },
{ "type": "Feature", "properties": { "map_id": "ip_28", "ip_name": "Kreung", "num_family": "Not found", "village": "Svay", "commune": "Pouy", "district": "Ou Chum", "province": "Ratanakiri", "land_size": null, "titled_par": "Not found", "residentia": "Not found", "tradi_agri": "Not found", "swidden_fa": "Not found", "burial _fo": "Not found", "forest_lan": "Not found", "date_titli": "Not found", "reference": "Notification_No_82__12.12.2022.pdf", "latest_upd": "3/1/2023", "language": "English" }, "geometry": { "type": "MultiPoint", "coordinates": [ [ 717443.743973302538507, 1535982.038970367051661 ] ] } },
{ "type": "Feature", "properties": { "map_id": "ip_29", "ip_name": "Prov", "num_family": "Not found", "village": "Rieng Vinh", "commune": "Ta Veaeng Leu", "district": "Ta Veaeng", "province": "Ratanakiri", "land_size": "336.2675", "titled_par": "Not found", "residentia": "Not found", "tradi_agri": "Not found", "swidden_fa": "Not found", "burial _fo": "Not found", "forest_lan": "Not found", "date_titli": "Not found", "reference": "Sub_Decree_No_34__25.01.2023.pdf", "latest_upd": "25/8/2023", "language": "English" }, "geometry": { "type": "MultiPoint", "coordinates": [ [ 729829.70796681905631, 1557304.748511348152533 ] ] } },
{ "type": "Feature", "properties": { "map_id": "ip_30", "ip_name": "Prov", "num_family": "Not found", "village": "Pangkit", "commune": "Ta Veaeng Leu", "district": "Ta Veaeng", "province": "Ratanakiri", "land_size": "829.7898", "titled_par": "Not found", "residentia": "Not found", "tradi_agri": "Not found", "swidden_fa": "Not found", "burial _fo": "Not found", "forest_lan": "Not found", "date_titli": "Not found", "reference": "Sub_Decree_No_33__25.01.2023.pdf", "latest_upd": "25/8/2023", "language": "English" }, "geometry": { "type": "MultiPoint", "coordinates": [ [ 730157.999805191298947, 1557101.000507031334564 ] ] } },
{ "type": "Feature", "properties": { "map_id": "ip_31", "ip_name": "Phnnong", "num_family": "140", "village": "Srae Chhuk", "commune": "Roluos Mean Chey", "district": "Sambour", "province": "Kratie", "land_size": "302.5868", "titled_par": "30", "residentia": "6", "tradi_agri": "24", "swidden_fa": "Not found", "burial _fo": "Not found", "forest_lan": "Not found", "date_titli": "Not found", "reference": "Sub_Decree_No_212__28.07.2023.pdf", "latest_upd": "1/12/2023", "language": "English" }, "geometry": { "type": "MultiPoint", "coordinates": [ [ 639524.113694939995185, 1441438.282767803175375 ] ] } },
{ "type": "Feature", "properties": { "map_id": "ip_32", "ip_name": "Kraol", "num_family": "126", "village": "Tnaot", "commune": "Srae ChisK", "district": "Sambour", "province": "Kratie", "land_size": "467.8292", "titled_par": "33", "residentia": "6", "tradi_agri": "27", "swidden_fa": "Not found", "burial _fo": "Not found", "forest_lan": "Not found", "date_titli": "Not found", "reference": "Sub_Decree_No_211__28.07.2023.pdf", "latest_upd": "1/12/2023", "language": "English" }, "geometry": { "type": "MultiPoint", "coordinates": [ [ 657057.000092607922852, 1432701.999841154320166 ] ] } },
{ "type": "Feature", "properties": { "map_id": "ip_37", "ip_name": "Kreung", "num_family": "57", "village": "Chan", "commune": "Ta Veaeng Leu", "district": "Ta Veaeng", "province": "Ratanakiri", "land_size": "235.8771", "titled_par": "15", "residentia": "2", "tradi_agri": "13", "swidden_fa": "Not found", "burial _fo": "Not found", "forest_lan": "Not found", "date_titli": "Not found", "reference": "Sub_Decree_No_226__01.12.2025.pdf", "latest_upd": "22/01/2026", "language": "English" }, "geometry": { "type": "MultiPoint", "coordinates": [ [ 738167.000409390660934, 1551954.000291330274194 ] ] } },
{ "type": "Feature", "properties": { "map_id": "ip_38", "ip_name": "Prov", "num_family": "53", "village": "Tumpuon Reung Thum", "commune": "Ta Veaeng Leu", "district": "Ta Veaeng", "province": "Ratanakiri", "land_size": "683.6379", "titled_par": "63", "residentia": "29", "tradi_agri": "34", "swidden_fa": "Not found", "burial _fo": "Not found", "forest_lan": "Not found", "date_titli": "Not found", "reference": "Sub_Decree_No_228__01.12.2025.pdf", "latest_upd": "22/01/2026", "language": "English" }, "geometry": { "type": "MultiPoint", "coordinates": [ [ 723162.000154484296218, 1557446.999514169292524 ] ] } },
{ "type": "Feature", "properties": { "map_id": "ip_39", "ip_name": "Tumpoun", "num_family": "159", "village": "Sakmotr Leu", "commune": "Seda", "district": "Lumphat", "province": "Ratanakiri", "land_size": "1215.713", "titled_par": "10", "residentia": "3", "tradi_agri": "7", "swidden_fa": "Not found", "burial _fo": "Not found", "forest_lan": "Not found", "date_titli": "Not found", "reference": "Sub_Decree_No_227__01.12.2025.pdf", "latest_upd": "22/01/2026", "language": "English" }, "geometry": { "type": "MultiPoint", "coordinates": [ [ 737463.000482867588289, 1495216.999563173856586 ] ] } },
{ "type": "Feature", "properties": { "map_id": "ip_41", "ip_name": "Kavet", "num_family": "131", "village": "Ou Chay", "commune": "Santepheap", "district": "Siem Pang", "province": "Stung Treng", "land_size": "327.1622", "titled_par": "21", "residentia": "13", "tradi_agri": "8", "swidden_fa": "Not found", "burial _fo": "Not found", "forest_lan": "Not found", "date_titli": "Not found", "reference": "Sub_Decree_No_231__01.12.2025.pdf", "latest_upd": "3/2/2026", "language": "English" }, "geometry": { "type": "MultiPoint", "coordinates": [ [ 654278.620354224927723, 1566845.003716612467542 ] ] } },
{ "type": "Feature", "properties": { "map_id": "ip_40", "ip_name": "Kavet", "num_family": "78", "village": "Tak team", "commune": "Santepheap", "district": "Siem Pang", "province": "Stung Treng", "land_size": "369.8251", "titled_par": "20", "residentia": "8", "tradi_agri": "12", "swidden_fa": "Not found", "burial _fo": "Not found", "forest_lan": "Not found", "date_titli": "Not found", "reference": "Sub_Decree_No_230__01.12.2025.pdf", "latest_upd": "3/2/2026", "language": "English" }, "geometry": { "type": "MultiPoint", "coordinates": [ [ 662164.809594431193545, 1564040.339822978014126 ] ] } },
{ "type": "Feature", "properties": { "map_id": "ip_80", "ip_name": "Kreung", "num_family": "72", "village": "Svay", "commune": "Pouy", "district": "Ou Chum", "province": "Ratanakiri", "land_size": "9,109,962", "titled_par": "28", "residentia": "6", "tradi_agri": "22", "swidden_fa": "Not found", "burial _fo": "Not found", "forest_lan": "Not found", "date_titli": "18/08/2025", "reference": "Sub_Decree_No_150_18.08.2025.pdf", "latest_upd": "30/03/2026", "language": "English" }, "geometry": { "type": "MultiPoint", "coordinates": [ [ 711959.757078571245074, 1536862.827751989942044 ] ] } },
{ "type": "Feature", "properties": { "map_id": "ip_81", "ip_name": "Prov", "num_family": "100", "village": "Kam Phlenh", "commune": "Lbang 1; Ta Ang", "district": "Lumphat; Koun Mom", "province": "Ratanakiri", "land_size": "2,887,152", "titled_par": "52", "residentia": "6", "tradi_agri": "46", "swidden_fa": "Not found", "burial _fo": "Not found", "forest_lan": "Not found", "date_titli": "18/08/2025", "reference": "Sub_Decree_No_152_18.08.2025.pdf", "latest_upd": "30/03/2026", "language": "English" }, "geometry": { "type": "MultiPoint", "coordinates": [ [ 708450.225727281533182, 1502419.26413596002385 ] ] } },
{ "type": "Feature", "properties": { "map_id": "ip_82", "ip_name": "Kreung", "num_family": "197", "village": "Khmaeng", "commune": "Pouy; Ka Choun", "district": "Ou Chum; Ka Choun", "province": "Ratanakiri", "land_size": "16,505,077", "titled_par": "70", "residentia": "18", "tradi_agri": "52", "swidden_fa": "Not found", "burial _fo": "Not found", "forest_lan": "Not found", "date_titli": "18/08/2025", "reference": "Sub_Decree_No_151_18.08.2025.pdf", "latest_upd": "30/03/2026", "language": "English" }, "geometry": { "type": "MultiPoint", "coordinates": [ [ 719385.194879233953543, 1537462.224509512307122 ] ] } },
{ "type": "Feature", "properties": { "map_id": "ip_83", "ip_name": "Kraol", "num_family": "346", "village": "Srae Chis", "commune": "Srae Chis", "district": "Ou Krieng Saenchey", "province": "Ratanakiri", "land_size": "744,654", "titled_par": "30", "residentia": "9", "tradi_agri": "21", "swidden_fa": "Not found", "burial _fo": "Not found", "forest_lan": "Not found", "date_titli": "18/08/2025", "reference": "Sub_Decree_No_153_18.08.2025.pdf", "latest_upd": "30/03/2026", "language": "English" }, "geometry": { "type": "MultiPoint", "coordinates": [ [ 658724.071862399112433, 1432548.316330052912235 ] ] } },
{ "type": "Feature", "properties": { "map_id": "ip_84", "ip_name": "Phnnong ", "num_family": "105", "village": "Lam Meh", "commune": "Bu Sra", "district": "Pech Chreada", "province": "Mondulkiri", "land_size": "13,097,869", "titled_par": "111", "residentia": "26", "tradi_agri": "85", "swidden_fa": "Not found", "burial _fo": "Not found", "forest_lan": "Not found", "date_titli": "18/08/2025", "reference": "Sub_Decree_No_154_18.08.2025.pdf", "latest_upd": "30/03/2026", "language": "English" }, "geometry": { "type": "MultiPoint", "coordinates": [ [ 760011.572727587423287, 1379159.589540787739679 ] ] } },
{ "type": "Feature", "properties": { "map_id": "ip_85", "ip_name": "Kreung", "num_family": "92", "village": "Thuoy Tum", "commune": "Cha Ung", "district": "Ou Chum", "province": "Ratanakiri", "land_size": "10,799,511", "titled_par": "57", "residentia": "8", "tradi_agri": "49", "swidden_fa": "Not found", "burial _fo": "Not found", "forest_lan": "Not found", "date_titli": "18/08/2025", "reference": "Sub_Decree_No_155_18.08.2025.pdf", "latest_upd": "30/03/2026", "language": "English" }, "geometry": { "type": "MultiPoint", "coordinates": [ [ 712882.991385008674115, 1520771.396844059927389 ] ] } },
{ "type": "Feature", "properties": { "map_id": "ip_86", "ip_name": "Tumpoun", "num_family": "156", "village": "Pa Ar", "commune": "Lung Khung", "district": "Bar Kaev", "province": "Ratanakiri", "land_size": "2,717,921", "titled_par": "37", "residentia": "6", "tradi_agri": "31", "swidden_fa": "Not found", "burial _fo": "Not found", "forest_lan": "Not found", "date_titli": "18/08/2025", "reference": "Sub_Decree_No_156_18.08.2025.pdf", "latest_upd": "30/03/2026", "language": "English" }, "geometry": { "type": "MultiPoint", "coordinates": [ [ 730910.675504129845649, 1503943.898846972035244 ] ] } }
]
}
