{
"type": "FeatureCollection",
"name": "07_osm_telecom_towers",
"crs": { "type": "name", "properties": { "name": "urn:ogc:def:crs:OGC:1.3:CRS84" } },
"features": [
{ "type": "Feature", "properties": { "source_type": "telecom", "osm_type": "node", "osm_id": 2790338528, "name": null, "man_made": "communications_tower", "tower_type": null, "mobile_phone": null, "operator": null, "waterway": null, "natural": null, "lat": 14.1175223, "lon": 105.8529666 }, "geometry": { "type": "Point", "coordinates": [ 105.8529666, 14.1175223 ] } },
{ "type": "Feature", "properties": { "source_type": "telecom", "osm_type": "node", "osm_id": 3415645978, "name": null, "man_made": "tower", "tower_type": null, "mobile_phone": null, "operator": null, "waterway": null, "natural": null, "lat": 14.0888041, "lon": 105.8840334 }, "geometry": { "type": "Point", "coordinates": [ 105.8840334, 14.0888041 ] } },
{ "type": "Feature", "properties": { "source_type": "telecom", "osm_type": "node", "osm_id": 3469740019, "name": null, "man_made": "tower", "tower_type": "communication", "mobile_phone": null, "operator": null, "waterway": null, "natural": null, "lat": 11.8525568, "lon": 106.9970118 }, "geometry": { "type": "Point", "coordinates": [ 106.9970118, 11.8525568 ] } },
{ "type": "Feature", "properties": { "source_type": "telecom", "osm_type": "node", "osm_id": 3692891502, "name": null, "man_made": "mast", "tower_type": null, "mobile_phone": null, "operator": null, "waterway": null, "natural": null, "lat": 14.2047519, "lon": 105.8094827 }, "geometry": { "type": "Point", "coordinates": [ 105.8094827, 14.2047519 ] } },
{ "type": "Feature", "properties": { "source_type": "telecom", "osm_type": "node", "osm_id": 3693587019, "name": null, "man_made": "mast", "tower_type": null, "mobile_phone": null, "operator": null, "waterway": null, "natural": null, "lat": 13.7636033, "lon": 106.1029099 }, "geometry": { "type": "Point", "coordinates": [ 106.1029099, 13.7636033 ] } },
{ "type": "Feature", "properties": { "source_type": "telecom", "osm_type": "node", "osm_id": 3809477995, "name": null, "man_made": "tower", "tower_type": "communication", "mobile_phone": null, "operator": null, "waterway": null, "natural": null, "lat": 13.9697981, "lon": 105.990425 }, "geometry": { "type": "Point", "coordinates": [ 105.990425, 13.9697981 ] } },
{ "type": "Feature", "properties": { "source_type": "telecom", "osm_type": "node", "osm_id": 3809480182, "name": null, "man_made": "tower", "tower_type": "communication", "mobile_phone": null, "operator": null, "waterway": null, "natural": null, "lat": 13.9673593, "lon": 105.9300591 }, "geometry": { "type": "Point", "coordinates": [ 105.9300591, 13.9673593 ] } },
{ "type": "Feature", "properties": { "source_type": "telecom", "osm_type": "node", "osm_id": 3809480186, "name": null, "man_made": "tower", "tower_type": "communication", "mobile_phone": null, "operator": null, "waterway": null, "natural": null, "lat": 14.0026074, "lon": 105.9207424 }, "geometry": { "type": "Point", "coordinates": [ 105.9207424, 14.0026074 ] } },
{ "type": "Feature", "properties": { "source_type": "telecom", "osm_type": "node", "osm_id": 6130776932, "name": null, "man_made": "tower", "tower_type": "communication", "mobile_phone": null, "operator": null, "waterway": null, "natural": null, "lat": 12.0013967, "lon": 107.7016622 }, "geometry": { "type": "Point", "coordinates": [ 107.7016622, 12.0013967 ] } },
{ "type": "Feature", "properties": { "source_type": "telecom", "osm_type": "node", "osm_id": 8141455754, "name": null, "man_made": "tower", "tower_type": "observation", "mobile_phone": null, "operator": null, "waterway": null, "natural": null, "lat": 12.442189, "lon": 107.2484294 }, "geometry": { "type": "Point", "coordinates": [ 107.2484294, 12.442189 ] } },
{ "type": "Feature", "properties": { "source_type": "telecom", "osm_type": "node", "osm_id": 8835524764, "name": null, "man_made": "tower", "tower_type": "stupa", "mobile_phone": null, "operator": null, "waterway": null, "natural": null, "lat": 12.7775572, "lon": 105.9658508 }, "geometry": { "type": "Point", "coordinates": [ 105.9658508, 12.7775572 ] } },
{ "type": "Feature", "properties": { "source_type": "telecom", "osm_type": "node", "osm_id": 8835524765, "name": null, "man_made": "tower", "tower_type": "stupa", "mobile_phone": null, "operator": null, "waterway": null, "natural": null, "lat": 12.7774851, "lon": 105.9659987 }, "geometry": { "type": "Point", "coordinates": [ 105.9659987, 12.7774851 ] } },
{ "type": "Feature", "properties": { "source_type": "telecom", "osm_type": "node", "osm_id": 10656458776, "name": null, "man_made": "tower", "tower_type": "communication", "mobile_phone": null, "operator": null, "waterway": null, "natural": null, "lat": 13.7276811, "lon": 106.9665679 }, "geometry": { "type": "Point", "coordinates": [ 106.9665679, 13.7276811 ] } },
{ "type": "Feature", "properties": { "source_type": "telecom", "osm_type": "node", "osm_id": 11698671804, "name": null, "man_made": "mast", "tower_type": "communication", "mobile_phone": "yes", "operator": null, "waterway": null, "natural": null, "lat": 13.9641349, "lon": 105.9263491 }, "geometry": { "type": "Point", "coordinates": [ 105.9263491, 13.9641349 ] } },
{ "type": "Feature", "properties": { "source_type": "telecom", "osm_type": "node", "osm_id": 11775402370, "name": null, "man_made": "mast", "tower_type": "communication", "mobile_phone": "yes", "operator": null, "waterway": null, "natural": null, "lat": 13.9836278, "lon": 105.9169482 }, "geometry": { "type": "Point", "coordinates": [ 105.9169482, 13.9836278 ] } },
{ "type": "Feature", "properties": { "source_type": "telecom", "osm_type": "node", "osm_id": 11775453634, "name": null, "man_made": "mast", "tower_type": "communication", "mobile_phone": "yes", "operator": null, "waterway": null, "natural": null, "lat": 13.983398, "lon": 105.9163282 }, "geometry": { "type": "Point", "coordinates": [ 105.9163282, 13.983398 ] } },
{ "type": "Feature", "properties": { "source_type": "telecom", "osm_type": "node", "osm_id": 11795766107, "name": null, "man_made": "mast", "tower_type": "communication", "mobile_phone": null, "operator": null, "waterway": null, "natural": null, "lat": 14.4134346, "lon": 105.8322178 }, "geometry": { "type": "Point", "coordinates": [ 105.8322178, 14.4134346 ] } },
{ "type": "Feature", "properties": { "source_type": "telecom", "osm_type": "node", "osm_id": 11819694561, "name": null, "man_made": "mast", "tower_type": "communication", "mobile_phone": null, "operator": null, "waterway": null, "natural": null, "lat": 13.9224316, "lon": 105.9953912 }, "geometry": { "type": "Point", "coordinates": [ 105.9953912, 13.9224316 ] } },
{ "type": "Feature", "properties": { "source_type": "telecom", "osm_type": "node", "osm_id": 11916363093, "name": null, "man_made": "mast", "tower_type": "communication", "mobile_phone": null, "operator": null, "waterway": null, "natural": null, "lat": 14.0869097, "lon": 105.7692647 }, "geometry": { "type": "Point", "coordinates": [ 105.7692647, 14.0869097 ] } },
{ "type": "Feature", "properties": { "source_type": "telecom", "osm_type": "node", "osm_id": 12036471548, "name": null, "man_made": "mast", "tower_type": "communication", "mobile_phone": null, "operator": null, "waterway": null, "natural": null, "lat": 12.4051236, "lon": 106.2382387 }, "geometry": { "type": "Point", "coordinates": [ 106.2382387, 12.4051236 ] } },
{ "type": "Feature", "properties": { "source_type": "telecom", "osm_type": "node", "osm_id": 12036492016, "name": null, "man_made": "mast", "tower_type": "communication", "mobile_phone": null, "operator": null, "waterway": null, "natural": null, "lat": 12.2147097, "lon": 106.4405185 }, "geometry": { "type": "Point", "coordinates": [ 106.4405185, 12.2147097 ] } },
{ "type": "Feature", "properties": { "source_type": "telecom", "osm_type": "node", "osm_id": 12036494057, "name": null, "man_made": "mast", "tower_type": "communication", "mobile_phone": null, "operator": null, "waterway": null, "natural": null, "lat": 12.0419919, "lon": 106.4021974 }, "geometry": { "type": "Point", "coordinates": [ 106.4021974, 12.0419919 ] } },
{ "type": "Feature", "properties": { "source_type": "telecom", "osm_type": "node", "osm_id": 12036494489, "name": null, "man_made": "mast", "tower_type": "communication", "mobile_phone": null, "operator": null, "waterway": null, "natural": null, "lat": 12.1170642, "lon": 106.4319523 }, "geometry": { "type": "Point", "coordinates": [ 106.4319523, 12.1170642 ] } },
{ "type": "Feature", "properties": { "source_type": "telecom", "osm_type": "node", "osm_id": 12036534106, "name": null, "man_made": "mast", "tower_type": "communication", "mobile_phone": null, "operator": null, "waterway": null, "natural": null, "lat": 12.261122, "lon": 106.4274363 }, "geometry": { "type": "Point", "coordinates": [ 106.4274363, 12.261122 ] } },
{ "type": "Feature", "properties": { "source_type": "telecom", "osm_type": "node", "osm_id": 12036536643, "name": null, "man_made": "mast", "tower_type": "communication", "mobile_phone": null, "operator": null, "waterway": null, "natural": null, "lat": 12.301409, "lon": 106.3597871 }, "geometry": { "type": "Point", "coordinates": [ 106.3597871, 12.301409 ] } },
{ "type": "Feature", "properties": { "source_type": "telecom", "osm_type": "node", "osm_id": 12036539299, "name": null, "man_made": "mast", "tower_type": "communication", "mobile_phone": null, "operator": null, "waterway": null, "natural": null, "lat": 12.2158964, "lon": 106.4371961 }, "geometry": { "type": "Point", "coordinates": [ 106.4371961, 12.2158964 ] } },
{ "type": "Feature", "properties": { "source_type": "telecom", "osm_type": "node", "osm_id": 12036542454, "name": null, "man_made": "mast", "tower_type": "communication", "mobile_phone": null, "operator": null, "waterway": null, "natural": null, "lat": 12.2988776, "lon": 106.3057208 }, "geometry": { "type": "Point", "coordinates": [ 106.3057208, 12.2988776 ] } },
{ "type": "Feature", "properties": { "source_type": "telecom", "osm_type": "node", "osm_id": 12036551854, "name": null, "man_made": "mast", "tower_type": "communication", "mobile_phone": null, "operator": null, "waterway": null, "natural": null, "lat": 12.3412541, "lon": 106.2640979 }, "geometry": { "type": "Point", "coordinates": [ 106.2640979, 12.3412541 ] } },
{ "type": "Feature", "properties": { "source_type": "telecom", "osm_type": "node", "osm_id": 12036558029, "name": null, "man_made": "tower", "tower_type": null, "mobile_phone": null, "operator": null, "waterway": null, "natural": null, "lat": 12.4869257, "lon": 107.243113 }, "geometry": { "type": "Point", "coordinates": [ 107.243113, 12.4869257 ] } },
{ "type": "Feature", "properties": { "source_type": "telecom", "osm_type": "node", "osm_id": 12036679156, "name": null, "man_made": "mast", "tower_type": null, "mobile_phone": null, "operator": null, "waterway": null, "natural": null, "lat": 12.7735133, "lon": 107.1525814 }, "geometry": { "type": "Point", "coordinates": [ 107.1525814, 12.7735133 ] } },
{ "type": "Feature", "properties": { "source_type": "telecom", "osm_type": "node", "osm_id": 12037279747, "name": null, "man_made": "mast", "tower_type": "communication", "mobile_phone": null, "operator": null, "waterway": null, "natural": null, "lat": 13.0472608, "lon": 106.1814354 }, "geometry": { "type": "Point", "coordinates": [ 106.1814354, 13.0472608 ] } },
{ "type": "Feature", "properties": { "source_type": "telecom", "osm_type": "node", "osm_id": 12595052438, "name": null, "man_made": "mast", "tower_type": null, "mobile_phone": null, "operator": null, "waterway": null, "natural": null, "lat": 13.5776876, "lon": 106.7596317 }, "geometry": { "type": "Point", "coordinates": [ 106.7596317, 13.5776876 ] } },
{ "type": "Feature", "properties": { "source_type": "telecom", "osm_type": "node", "osm_id": 12595052439, "name": null, "man_made": "mast", "tower_type": null, "mobile_phone": null, "operator": null, "waterway": null, "natural": null, "lat": 13.5776464, "lon": 106.7610415 }, "geometry": { "type": "Point", "coordinates": [ 106.7610415, 13.5776464 ] } },
{ "type": "Feature", "properties": { "source_type": "telecom", "osm_type": "node", "osm_id": 12595052440, "name": null, "man_made": "mast", "tower_type": null, "mobile_phone": null, "operator": null, "waterway": null, "natural": null, "lat": 13.5774908, "lon": 106.7616598 }, "geometry": { "type": "Point", "coordinates": [ 106.7616598, 13.5774908 ] } },
{ "type": "Feature", "properties": { "source_type": "telecom", "osm_type": "node", "osm_id": 12595052441, "name": null, "man_made": "mast", "tower_type": null, "mobile_phone": null, "operator": null, "waterway": null, "natural": null, "lat": 13.5771205, "lon": 106.762131 }, "geometry": { "type": "Point", "coordinates": [ 106.762131, 13.5771205 ] } },
{ "type": "Feature", "properties": { "source_type": "telecom", "osm_type": "node", "osm_id": 12675141386, "name": null, "man_made": "tower", "tower_type": "observation", "mobile_phone": null, "operator": null, "waterway": null, "natural": null, "lat": 12.2399955, "lon": 107.2746164 }, "geometry": { "type": "Point", "coordinates": [ 107.2746164, 12.2399955 ] } },
{ "type": "Feature", "properties": { "source_type": "telecom", "osm_type": "node", "osm_id": 12793486930, "name": null, "man_made": "mast", "tower_type": null, "mobile_phone": null, "operator": null, "waterway": null, "natural": null, "lat": 13.4971776, "lon": 106.3505515 }, "geometry": { "type": "Point", "coordinates": [ 106.3505515, 13.4971776 ] } }
]
}
